H1 CPF  1  DLR 2021 08 30 10  7422 technosat            
H2  1704205 6203    42829 2021 08 30 00 00 00 2021 09 06 00 00 00    60 1 1  0 0 0
H9
10 0 59462  36000.000000  0        211573.270        889001.926      -6911658.481
10 0 59462  36060.000000  0        637278.962        722510.337      -6905258.676
10 0 59462  36120.000000  0       1058827.947        549284.042      -6869708.083
10 0 59462  36180.000000  0       1474398.258        370093.557      -6805159.194
10 0 59462  36240.000000  0       1882199.930        185749.980      -6711885.577
10 0 59462  36300.000000  0       2280482.559         -2898.616      -6590280.784
10 0 59462  36360.000000  0       2667542.785       -194970.980      -6440856.880
10 0 59462  36420.000000  0       3041731.616       -389556.750      -6264242.353
10 0 59462  36480.000000  0       3401461.357       -585720.683      -6061179.555
10 0 59462  36540.000000  0       3745212.294       -782507.012      -5832521.795
10 0 59462  36600.000000  0       4071539.168       -978943.980      -5579230.061
10 0 59462  36660.000000  0       4379077.408      -1174048.577      -5302369.249
10 0 59462  36720.000000  0       4666548.994      -1366831.396      -5003103.880
10 0 59462  36780.000000  0       4932767.922      -1556301.550      -4682693.407
10 0 59462  36840.000000  0       5176645.294      -1741471.666      -4342487.123
10 0 59462  36900.000000  0       5397193.991      -1921362.926      -3983918.654
10 0 59462  36960.000000  0       5593532.915      -2095010.139      -3608500.065
10 0 59462  37020.000000  0       5764890.760      -2261466.801      -3217815.574
10 0 59462  37080.000000  0       5910609.274      -2419810.140      -2813514.918
10 0 59462  37140.000000  0       6030146.001      -2569146.089      -2397306.391
10 0 59462  37200.000000  0       6123076.466      -2708614.157      -1970949.589
10 0 59462  37260.000000  0       6189095.816      -2837392.176      -1536247.941
10 0 59462  37320.000000  0       6228019.943      -2954700.911      -1095041.003
10 0 59462  37380.000000  0       6239786.010      -3059808.500       -649196.522
10 0 59462  37440.000000  0       6224452.370      -3152034.682       -200602.368
10 0 59462  37500.000000  0       6182197.910      -3230754.776        248841.605
10 0 59462  37560.000000  0       6113320.891      -3295403.438        697231.767
10 0 59462  37620.000000  0       6018237.200      -3345478.143       1142669.038
10 0 59462  37680.000000  0       5897477.941      -3380542.319       1583267.222
10 0 59462  37740.000000  0       5751686.408      -3400228.128       2017161.158
10 0 59462  37800.000000  0       5581614.622      -3404238.955       2442514.696
10 0 59462  37860.000000  0       5388119.436      -3392351.572       2857528.608
10 0 59462  37920.000000  0       5172158.066      -3364417.857       3260448.362
10 0 59462  37980.000000  0       4934783.163      -3320366.124       3649571.530
10 0 59462  38040.000000  0       4677137.577      -3260202.130       4023254.929
10 0 59462  38100.000000  0       4400448.761      -3184009.743       4379921.566
10 0 59462  38160.000000  0       4106022.742      -3091951.225       4718067.317
10 0 59462  38220.000000  0       3795237.686      -2984267.088       5036267.185
10 0 59462  38280.000000  0       3469537.264      -2861275.542       5333181.123
10 0 59462  38340.000000  0       3130423.826      -2723371.563       5607559.480
10 0 59462  38400.000000  0       2779451.373      -2571025.629       5858248.064
10 0 59462  38460.000000  0       2418218.343      -2404782.107       6084192.798
10 0 59462  38520.000000  0       2048360.255      -2225257.276       6284443.911
10 0 59462  38580.000000  0       1671542.311      -2033137.028       6458159.699
10 0 59462  38640.000000  0       1289451.878      -1829174.235       6604609.890
10 0 59462  38700.000000  0        903790.938      -1614185.762       6723178.482
10 0 59462  38760.000000  0        516268.584      -1389049.208       6813366.140
10 0 59462  38820.000000  0        128593.529      -1154699.343       6874792.190
10 0 59462  38880.000000  0       -257533.353       -912124.230       6907196.083
10 0 59462  38940.000000  0       -640426.336       -662361.150       6910438.424
10 0 59462  39000.000000  0      -1018422.116       -406492.236       6884501.619
10 0 59462  39060.000000  0      -1389886.956       -145639.840       6829489.988
10 0 59462  39120.000000  0      -1753223.652        119038.302       6745629.429
10 0 59462  39180.000000  0      -2106878.335        386354.133       6633266.649
10 0 59462  39240.000000  0      -2449347.105        655094.525       6492867.904
10 0 59462  39300.000000  0      -2779182.423        924026.692       6325017.268
10 0 59462  39360.000000  0      -3094999.257       1191903.770       6130414.476
10 0 59462  39420.000000  0      -3395480.998       1457470.540       5909872.299
10 0 59462  39480.000000  0      -3679385.094       1719469.252       5664313.434
10 0 59462  39540.000000  0      -3945548.368       1976645.575       5394766.950
10 0 59462  39600.000000  0      -4192892.010       2227754.633       5102364.253
10 0 59462  39660.000000  0      -4420426.196       2471567.059       4788334.564
10 0 59462  39720.000000  0      -4627254.307       2706875.037       4453999.917
10 0 59462  39780.000000  0      -4812576.673       2932498.299       4100769.756
10 0 59462  39840.000000  0      -4975693.929       3147290.108       3730135.184
10 0 59462  39900.000000  0      -5116009.929       3350143.144       3343662.757
10 0 59462  39960.000000  0      -5233034.139       3539995.272       2942987.939
10 0 59462  40020.000000  0      -5326383.591       3715835.182       2529808.231
10 0 59462  40080.000000  0      -5395784.315       3876707.855       2105875.876
10 0 59462  40140.000000  0      -5441072.215       4021719.741       1672990.318
10 0 59462  40200.000000  0      -5462193.480       4150043.749       1232990.374
10 0 59462  40260.000000  0      -5459204.299       4260923.846        787746.122
10 0 59462  40320.000000  0      -5432270.058       4353679.316        339150.822
10 0 59462  40380.000000  0      -5381664.142       4427708.786       -110887.397
10 0 59462  40440.000000  0      -5307766.116       4482493.788       -560453.993
10 0 59462  40500.000000  0      -5211059.379       4517601.969      -1007636.446
10 0 59462  40560.000000  0      -5092128.300       4532689.896      -1450532.792
10 0 59462  40620.000000  0      -4951654.782       4527505.319      -1887260.049
10 0 59462  40680.000000  0      -4790414.404       4501888.960      -2315962.496
10 0 59462  40740.000000  0      -4609272.105       4455775.853      -2734819.805
10 0 59462  40800.000000  0      -4409177.455       4389196.251      -3142054.970
10 0 59462  40860.000000  0      -4191159.513       4302275.991      -3535942.026
10 0 59462  40920.000000  0      -3956321.363       4195236.398      -3914813.383
10 0 59462  40980.000000  0      -3705834.380       4068393.780      -4277066.927
10 0 59462  41040.000000  0      -3440932.142       3922158.395      -4621172.769
10 0 59462  41100.000000  0      -3162904.206       3757032.963      -4945679.522
10 0 59462  41160.000000  0      -2873089.765       3573610.841      -5249220.289
10 0 59462  41220.000000  0      -2572871.060       3372573.747      -5530518.307
10 0 59462  41280.000000  0      -2263666.646       3154689.047      -5788392.147
10 0 59462  41340.000000  0      -1946924.561       2920806.621      -6021760.466
10 0 59462  41400.000000  0      -1624115.439       2671855.332      -6229646.274
10 0 59462  41460.000000  0      -1296725.622       2408839.138      -6411180.707
10 0 59462  41520.000000  0       -966250.333       2132832.950      -6565606.314
10 0 59462  41580.000000  0       -634186.876       1844978.179      -6692280.001
10 0 59462  41640.000000  0       -302027.855       1546477.891      -6790675.425
10 0 59462  41700.000000  0         28745.383       1238591.749      -6860384.877
10 0 59462  41760.000000  0        356669.233        922630.753      -6901120.864
10 0 59462  41820.000000  0        680304.276        599951.699      -6912717.224
10 0 59462  41880.000000  0        998241.580        271951.343      -6895129.686
10 0 59462  41940.000000  0       1309108.743        -59939.618      -6848435.889
10 0 59462  42000.000000  0       1611575.703       -394262.703      -6772834.962
10 0 59462  42060.000000  0       1904360.297       -729537.933      -6668646.699
10 0 59462  42120.000000  0       2186233.641      -1064270.292      -6536310.351
10 0 59462  42180.000000  0       2456025.297      -1396956.332      -6376382.840
10 0 59462  42240.000000  0       2712628.061      -1726090.777      -6189536.511
10 0 59462  42300.000000  0       2955002.482      -2050173.209      -5976556.592
10 0 59462  42360.000000  0       3182181.151      -2367714.907      -5738338.207
10 0 59462  42420.000000  0       3393272.706      -2677245.757      -5475882.850
10 0 59462  42480.000000  0       3587465.427      -2977321.120      -5190294.299
10 0 59462  42540.000000  0       3764030.386      -3266528.588      -4882774.110
10 0 59462  42600.000000  0       3922324.229      -3543494.634      -4554616.742
10 0 59462  42660.000000  0       4061791.578      -3806891.148      -4207204.347
10 0 59462  42720.000000  0       4181967.091      -4055441.888      -3842001.157
10 0 59462  42780.000000  0       4282477.096      -4287928.783      -3460547.475
10 0 59462  42840.000000  0       4363040.809      -4503197.999      -3064453.264
10 0 59462  42900.000000  0       4423471.116      -4700165.765      -2655391.403
10 0 59462  42960.000000  0       4463674.903      -4877823.933      -2235090.656
10 0 59462  43020.000000  0       4483652.892      -5035245.297      -1805328.297
10 0 59462  43080.000000  0       4483499.001      -5171588.447      -1367922.496
10 0 59462  43140.000000  0       4463399.312      -5286102.263       -924724.521
99
